[{"OBJECT_NAME":"FLYING LAPTOP","OBJECT_ID":"2017-042G","EPOCH":"2026-03-05T18:38:41.454816","MEAN_MOTION":15.00486943,"ECCENTRICITY":0.0018793,"INCLINATION":97.4261,"RA_OF_ASC_NODE":224.6256,"ARG_OF_PERICENTER":108.1757,"MEAN_ANOMALY":252.1516,"EPHEMERIS_TYPE":0,"CLASSIFICATION_TYPE":"U","NORAD_CAT_ID":42831,"ELEMENT_SET_NO":999,"REV_AT_EPOCH":47094,"BSTAR":0.0003573,"MEAN_MOTION_DOT":4.46e-5,"MEAN_MOTION_DDOT":0},{"OBJECT_NAME":"HAWK-A","OBJECT_ID":"2018-099H","EPOCH":"2026-03-05T16:03:19.186848","MEAN_MOTION":15.23153574,"ECCENTRICITY":0.0034347,"INCLINATION":97.4057,"RA_OF_ASC_NODE":118.2887,"ARG_OF_PERICENTER":290.2394,"MEAN_ANOMALY":69.5151,"EPHEMERIS_TYPE":0,"CLASSIFICATION_TYPE":"U","NORAD_CAT_ID":43765,"ELEMENT_SET_NO":999,"REV_AT_EPOCH":39733,"BSTAR":0.00039347,"MEAN_MOTION_DOT":9.378e-5,"MEAN_MOTION_DDOT":0},{"OBJECT_NAME":"HAWK-B","OBJECT_ID":"2018-099AN","EPOCH":"2026-03-05T16:51:11.674944","MEAN_MOTION":15.21461503,"ECCENTRICITY":0.003155,"INCLINATION":97.4105,"RA_OF_ASC_NODE":117.9437,"ARG_OF_PERICENTER":308.0793,"MEAN_ANOMALY":51.7598,"EPHEMERIS_TYPE":0,"CLASSIFICATION_TYPE":"U","NORAD_CAT_ID":43794,"ELEMENT_SET_NO":999,"REV_AT_EPOCH":39729,"BSTAR":0.00038668,"MEAN_MOTION_DOT":8.74e-5,"MEAN_MOTION_DDOT":0},{"OBJECT_NAME":"HAWK-C","OBJECT_ID":"2018-099AT","EPOCH":"2026-03-05T16:10:00.739488","MEAN_MOTION":15.26315534,"ECCENTRICITY":0.0040511,"INCLINATION":97.403,"RA_OF_ASC_NODE":118.7181,"ARG_OF_PERICENTER":292.1869,"MEAN_ANOMALY":67.5073,"EPHEMERIS_TYPE":0,"CLASSIFICATION_TYPE":"U","NORAD_CAT_ID":43799,"ELEMENT_SET_NO":999,"REV_AT_EPOCH":39811,"BSTAR":0.00039942,"MEAN_MOTION_DOT":0.00010546,"MEAN_MOTION_DDOT":0},{"OBJECT_NAME":"SALSAT","OBJECT_ID":"2020-068K","EPOCH":"2026-03-05T13:08:47.110272","MEAN_MOTION":15.28084035,"ECCENTRICITY":0.0008579,"INCLINATION":97.8852,"RA_OF_ASC_NODE":61.4374,"ARG_OF_PERICENTER":314.2144,"MEAN_ANOMALY":45.8389,"EPHEMERIS_TYPE":0,"CLASSIFICATION_TYPE":"U","NORAD_CAT_ID":46495,"ELEMENT_SET_NO":999,"REV_AT_EPOCH":29952,"BSTAR":0.00043846,"MEAN_MOTION_DOT":0.00011945,"MEAN_MOTION_DDOT":0},{"OBJECT_NAME":"HAWK-2C","OBJECT_ID":"2021-006CT","EPOCH":"2026-03-05T16:40:38.590176","MEAN_MOTION":15.33214777,"ECCENTRICITY":0.0006518,"INCLINATION":97.242,"RA_OF_ASC_NODE":111.0954,"ARG_OF_PERICENTER":198.806,"MEAN_ANOMALY":161.2943,"EPHEMERIS_TYPE":0,"CLASSIFICATION_TYPE":"U","NORAD_CAT_ID":47502,"ELEMENT_SET_NO":999,"REV_AT_EPOCH":28363,"BSTAR":0.00027504,"MEAN_MOTION_DOT":8.756e-5,"MEAN_MOTION_DDOT":0},{"OBJECT_NAME":"HAWK-2A","OBJECT_ID":"2021-006CW","EPOCH":"2026-03-05T16:45:46.035072","MEAN_MOTION":15.3323217,"ECCENTRICITY":0.0006028,"INCLINATION":97.2461,"RA_OF_ASC_NODE":111.715,"ARG_OF_PERICENTER":202.0701,"MEAN_ANOMALY":158.0283,"EPHEMERIS_TYPE":0,"CLASSIFICATION_TYPE":"U","NORAD_CAT_ID":47505,"ELEMENT_SET_NO":999,"REV_AT_EPOCH":28363,"BSTAR":0.00027653,"MEAN_MOTION_DOT":8.808e-5,"MEAN_MOTION_DDOT":0},{"OBJECT_NAME":"HAWK-2B","OBJECT_ID":"2021-006CZ","EPOCH":"2026-03-05T16:41:09.077280","MEAN_MOTION":15.33208371,"ECCENTRICITY":0.000663,"INCLINATION":97.2336,"RA_OF_ASC_NODE":110.2178,"ARG_OF_PERICENTER":200.2911,"MEAN_ANOMALY":159.8069,"EPHEMERIS_TYPE":0,"CLASSIFICATION_TYPE":"U","NORAD_CAT_ID":47508,"ELEMENT_SET_NO":999,"REV_AT_EPOCH":28363,"BSTAR":0.0002859,"MEAN_MOTION_DOT":9.104e-5,"MEAN_MOTION_DDOT":0},{"OBJECT_NAME":"HAWK-3B","OBJECT_ID":"2021-059BE","EPOCH":"2026-03-05T12:17:50.255808","MEAN_MOTION":15.61189507,"ECCENTRICITY":0.0005339,"INCLINATION":97.6714,"RA_OF_ASC_NODE":252.0507,"ARG_OF_PERICENTER":353.968,"MEAN_ANOMALY":6.1512,"EPHEMERIS_TYPE":0,"CLASSIFICATION_TYPE":"U","NORAD_CAT_ID":48931,"ELEMENT_SET_NO":999,"REV_AT_EPOCH":26163,"BSTAR":0.00052659,"MEAN_MOTION_DOT":0.0004459,"MEAN_MOTION_DDOT":0},{"OBJECT_NAME":"HAWK-3C","OBJECT_ID":"2021-059BX","EPOCH":"2026-03-05T12:17:30.127200","MEAN_MOTION":15.61188816,"ECCENTRICITY":0.0005845,"INCLINATION":97.6859,"RA_OF_ASC_NODE":257.5413,"ARG_OF_PERICENTER":355.3319,"MEAN_ANOMALY":4.7882,"EPHEMERIS_TYPE":0,"CLASSIFICATION_TYPE":"U","NORAD_CAT_ID":48948,"ELEMENT_SET_NO":999,"REV_AT_EPOCH":26163,"BSTAR":0.00053044,"MEAN_MOTION_DOT":0.00044923,"MEAN_MOTION_DDOT":0},{"OBJECT_NAME":"HAWK-3A","OBJECT_ID":"2021-059CG","EPOCH":"2026-03-05T12:17:14.861184","MEAN_MOTION":15.61195321,"ECCENTRICITY":0.0005358,"INCLINATION":97.6795,"RA_OF_ASC_NODE":254.8331,"ARG_OF_PERICENTER":354.8373,"MEAN_ANOMALY":5.2827,"EPHEMERIS_TYPE":0,"CLASSIFICATION_TYPE":"U","NORAD_CAT_ID":48957,"ELEMENT_SET_NO":999,"REV_AT_EPOCH":26163,"BSTAR":0.00053901,"MEAN_MOTION_DOT":0.0004566,"MEAN_MOTION_DDOT":0},{"OBJECT_NAME":"HAWK-5C","OBJECT_ID":"2022-057Y","EPOCH":"2026-03-05T17:09:36.560736","MEAN_MOTION":15.47318549,"ECCENTRICITY":0.0005635,"INCLINATION":97.645,"RA_OF_ASC_NODE":218.121,"ARG_OF_PERICENTER":89.1097,"MEAN_ANOMALY":271.0798,"EPHEMERIS_TYPE":0,"CLASSIFICATION_TYPE":"U","NORAD_CAT_ID":52754,"ELEMENT_SET_NO":999,"REV_AT_EPOCH":21032,"BSTAR":0.00050552,"MEAN_MOTION_DOT":0.0002577,"MEAN_MOTION_DDOT":0},{"OBJECT_NAME":"HAWK-5B","OBJECT_ID":"2022-057AA","EPOCH":"2026-03-05T17:09:25.191360","MEAN_MOTION":15.47320379,"ECCENTRICITY":0.0005617,"INCLINATION":97.6452,"RA_OF_ASC_NODE":216.4613,"ARG_OF_PERICENTER":84.0229,"MEAN_ANOMALY":276.166,"EPHEMERIS_TYPE":0,"CLASSIFICATION_TYPE":"U","NORAD_CAT_ID":52756,"ELEMENT_SET_NO":999,"REV_AT_EPOCH":21032,"BSTAR":0.00050349,"MEAN_MOTION_DOT":0.00025667,"MEAN_MOTION_DDOT":0},{"OBJECT_NAME":"HAWK-5A","OBJECT_ID":"2022-057AB","EPOCH":"2026-03-05T17:09:01.130688","MEAN_MOTION":15.47319786,"ECCENTRICITY":0.0006029,"INCLINATION":97.6453,"RA_OF_ASC_NODE":217.2949,"ARG_OF_PERICENTER":86.1793,"MEAN_ANOMALY":274.0146,"EPHEMERIS_TYPE":0,"CLASSIFICATION_TYPE":"U","NORAD_CAT_ID":52757,"ELEMENT_SET_NO":999,"REV_AT_EPOCH":21032,"BSTAR":0.0005098,"MEAN_MOTION_DOT":0.00025993,"MEAN_MOTION_DDOT":0},{"OBJECT_NAME":"HAWK-6B","OBJECT_ID":"2023-011A","EPOCH":"2026-03-05T12:56:03.685056","MEAN_MOTION":15.21840419,"ECCENTRICITY":0.000263,"INCLINATION":40.5122,"RA_OF_ASC_NODE":236.1462,"ARG_OF_PERICENTER":355.1543,"MEAN_ANOMALY":4.924,"EPHEMERIS_TYPE":0,"CLASSIFICATION_TYPE":"U","NORAD_CAT_ID":55324,"ELEMENT_SET_NO":999,"REV_AT_EPOCH":17204,"BSTAR":0.00036534,"MEAN_MOTION_DOT":8.292e-5,"MEAN_MOTION_DDOT":0},{"OBJECT_NAME":"HAWK-6C","OBJECT_ID":"2023-011C","EPOCH":"2026-03-05T11:20:42.170784","MEAN_MOTION":15.21833199,"ECCENTRICITY":0.0003125,"INCLINATION":40.4826,"RA_OF_ASC_NODE":233.4083,"ARG_OF_PERICENTER":341.4147,"MEAN_ANOMALY":18.6547,"EPHEMERIS_TYPE":0,"CLASSIFICATION_TYPE":"U","NORAD_CAT_ID":55326,"ELEMENT_SET_NO":999,"REV_AT_EPOCH":17204,"BSTAR":0.00037543,"MEAN_MOTION_DOT":8.526e-5,"MEAN_MOTION_DDOT":0},{"OBJECT_NAME":"HAWK-6A","OBJECT_ID":"2023-011D","EPOCH":"2026-03-05T12:55:13.222272","MEAN_MOTION":15.21837632,"ECCENTRICITY":0.0002766,"INCLINATION":40.4977,"RA_OF_ASC_NODE":234.6286,"ARG_OF_PERICENTER":339.1188,"MEAN_ANOMALY":20.9508,"EPHEMERIS_TYPE":0,"CLASSIFICATION_TYPE":"U","NORAD_CAT_ID":55327,"ELEMENT_SET_NO":999,"REV_AT_EPOCH":17205,"BSTAR":0.00036999,"MEAN_MOTION_DOT":8.4e-5,"MEAN_MOTION_DDOT":0}]
