FLYING LAPTOP           
1 42831U 17042G   26064.77686869  .00004460  00000+0  35730-3 0  9991
2 42831  97.4261 224.6256 0018793 108.1757 252.1516 15.00486943470949
HAWK-A                  
1 43765U 18099H   26064.66897207  .00009378  00000+0  39347-3 0  9990
2 43765  97.4057 118.2887 0034347 290.2394  69.5151 15.23153574397332
HAWK-B                  
1 43794U 18099AN  26064.70221846  .00008740  00000+0  38668-3 0  9994
2 43794  97.4105 117.9437 0031550 308.0793  51.7598 15.21461503397294
HAWK-C                  
1 43799U 18099AT  26064.67361967  .00010546  00000+0  39942-3 0  9997
2 43799  97.4030 118.7181 0040511 292.1869  67.5073 15.26315534398117
SALSAT                  
1 46495U 20068K   26064.54776748  .00011945  00000+0  43846-3 0  9997
2 46495  97.8852  61.4374 0008579 314.2144  45.8389 15.28084035299522
HAWK-2C                 
1 47502U 21006CT  26064.69489109  .00008756  00000+0  27504-3 0  9997
2 47502  97.2420 111.0954 0006518 198.8060 161.2943 15.33214777283635
HAWK-2A                 
1 47505U 21006CW  26064.69844948  .00008808  00000+0  27653-3 0  9999
2 47505  97.2461 111.7150 0006028 202.0701 158.0283 15.33232170283632
HAWK-2B                 
1 47508U 21006CZ  26064.69524395  .00009104  00000+0  28590-3 0  9994
2 47508  97.2336 110.2178 0006630 200.2911 159.8069 15.33208371283639
HAWK-3B                 
1 48931U 21059BE  26064.51238722  .00044590  00000+0  52659-3 0  9991
2 48931  97.6714 252.0507 0005339 353.9680   6.1512 15.61189507261632
HAWK-3C                 
1 48948U 21059BX  26064.51215425  .00044923  00000+0  53044-3 0  9993
2 48948  97.6859 257.5413 0005845 355.3319   4.7882 15.61188816261639
HAWK-3A                 
1 48957U 21059CG  26064.51197756  .00045660  00000+0  53901-3 0  9990
2 48957  97.6795 254.8331 0005358 354.8373   5.2827 15.61195321261634
HAWK-5C                 
1 52754U 22057Y   26064.71500649  .00025770  00000+0  50552-3 0  9999
2 52754  97.6450 218.1210 0005635  89.1097 271.0798 15.47318549210323
HAWK-5B                 
1 52756U 22057AA  26064.71487490  .00025667  00000+0  50349-3 0  9998
2 52756  97.6452 216.4613 0005617  84.0229 276.1660 15.47320379210324
HAWK-5A                 
1 52757U 22057AB  26064.71459642  .00025993  00000+0  50980-3 0  9990
2 52757  97.6453 217.2949 0006029  86.1793 274.0146 15.47319786210320
HAWK-6B                 
1 55324U 23011A   26064.53893154  .00008292  00000+0  36534-3 0  9996
2 55324  40.5122 236.1462 0002630 355.1543   4.9240 15.21840419172044
HAWK-6C                 
1 55326U 23011C   26064.47271031  .00008526  00000+0  37543-3 0  9996
2 55326  40.4826 233.4083 0003125 341.4147  18.6547 15.21833199172042
HAWK-6A                 
1 55327U 23011D   26064.53834748  .00008400  00000+0  36999-3 0  9999
2 55327  40.4977 234.6286 0002766 339.1188  20.9508 15.21837632172057
